[{"OBJECT_NAME":"T1DES 1 (DRAGOON 1)","OBJECT_ID":"2025-135Q","EPOCH":"2026-03-09T07:27:07.463520","MEAN_MOTION":15.23819655,"ECCENTRICITY":0.00038782,"INCLINATION":97.4578,"RA_OF_ASC_NODE":184.7906,"ARG_OF_PERICENTER":148.787,"MEAN_ANOMALY":211.3598,"EPHEMERIS_TYPE":0,"CLASSIFICATION_TYPE":"U","NORAD_CAT_ID":64542,"ELEMENT_SET_NO":999,"REV_AT_EPOCH":3970,"BSTAR":0.00060517834,"MEAN_MOTION_DOT":0.00014527,"MEAN_MOTION_DDOT":0},{"OBJECT_NAME":"KUIPER-00155","OBJECT_ID":"2025-217N","EPOCH":"2026-03-09T06:30:32.856768","MEAN_MOTION":15.23116677,"ECCENTRICITY":0.00054059,"INCLINATION":51.8785,"RA_OF_ASC_NODE":13.4958,"ARG_OF_PERICENTER":320.4858,"MEAN_ANOMALY":39.5728,"EPHEMERIS_TYPE":0,"CLASSIFICATION_TYPE":"U","NORAD_CAT_ID":65774,"ELEMENT_SET_NO":999,"REV_AT_EPOCH":2525,"BSTAR":0.00081110335,"MEAN_MOTION_DOT":0.00019122,"MEAN_MOTION_DDOT":0}]
